STARLINK-35797          
1 66364U 25254S   25328.83337963  .00014486  00000+0  10308-3 0  9992
2 66364  53.1587   3.7734 0001262 104.7985 201.4392 15.74179343  4048
STARLINK-35827          
1 66365U 25254T   25328.83337963  .00012768  00000+0  91368-4 0  9990
2 66365  53.1588   3.7661 0001156  82.2711 227.7991 15.74181746  4011
STARLINK-35845          
1 66366U 25254U   25328.83337963  .00060392  00000+0  41422-3 0  9992
2 66366  53.1586   3.7694 0001206  99.6687 208.4923 15.74159277  4044
STARLINK-35846          
1 66367U 25254V   25328.83337963  .00019375  00000+0  13634-3 0  9992
2 66367  53.1587   3.7611 0001075  90.6476 221.3415 15.74179660  3997
STARLINK-34861          
1 66368U 25254W   25328.71421703  .00218094  00000+0  14521-2 0  9990
2 66368  53.1582   4.3439 0001324  64.4878 295.6279 15.74239157  2843
STARLINK-35795          
1 66369U 25254X   25328.83337963  .00024588  00000+0  17175-3 0  9990
2 66369  53.1587   3.7566 0001164  91.5443 222.3570 15.74180117  3993
STARLINK-35824          
1 66370U 25254Y   25328.83337963  .00095186  00000+0  64841-3 0  9996
2 66370  53.1586   3.7486 0001299 107.6849 210.0759 15.74134711  4019
STARLINK-35804          
1 66371U 25254Z   25328.71319926  .00224464  00000+0  14923-2 0  9991
2 66371  53.1584   4.3374 0001097  94.0225 266.0921 15.74252865  2846
STARLINK-35821          
1 66372U 25254AA  25328.71353992  .00239088  00000+0  15866-2 0  9998
2 66372  53.1585   4.3404 0001277  61.9450 298.1699 15.74251455  2847
STARLINK-35809          
1 66373U 25254AB  25328.71286225  .00243977  00000+0  16174-2 0  9998
2 66373  53.1583   4.3347 0000944  70.4363 289.6759 15.74259340  2843
STARLINK-35831          
1 66374U 25254AC  25328.64903505  .00218126  00000+0  14514-2 0  9992
2 66374  53.1582   4.6474 0001158  81.4141 278.7010 15.74253097  2832
STARLINK-35826          
1 66375U 25254AD  25328.71218514  .00262184  00000+0  17336-2 0  9998
2 66375  53.1583   4.3304 0000774 115.1717 244.9383 15.74265038  2847
