CCSDS_OMM_VERS = 2.0
CREATION_DATE  = 
ORIGINATOR     = 

OBJECT_NAME    = STARLINK-35797
OBJECT_ID      = 2025-254S
CENTER_NAME    = EARTH
REF_FRAME      = TEME
TIME_SYSTEM    = UTC
MEAN_ELEMENT_THEORY = SGP/SGP4

EPOCH          = 2025-11-24T20:00:04.000032
MEAN_MOTION    = 15.74179343
ECCENTRICITY   = .0001262
INCLINATION    = 53.1587
RA_OF_ASC_NODE = 3.7734
ARG_OF_PERICENTER = 104.7985
MEAN_ANOMALY   = 201.4392

EPHEMERIS_TYPE = 0
CLASSIFICATION_TYPE = U
NORAD_CAT_ID   = 66364
ELEMENT_SET_NO = 999
REV_AT_EPOCH   = 404
BSTAR          = .10308E-3
MEAN_MOTION_DOT = .14486E-3
MEAN_MOTION_DDOT = 0

CCSDS_OMM_VERS = 2.0
CREATION_DATE  = 
ORIGINATOR     = 

OBJECT_NAME    = STARLINK-35827
OBJECT_ID      = 2025-254T
CENTER_NAME    = EARTH
REF_FRAME      = TEME
TIME_SYSTEM    = UTC
MEAN_ELEMENT_THEORY = SGP/SGP4

EPOCH          = 2025-11-24T20:00:04.000032
MEAN_MOTION    = 15.74181746
ECCENTRICITY   = .0001156
INCLINATION    = 53.1588
RA_OF_ASC_NODE = 3.7661
ARG_OF_PERICENTER = 82.2711
MEAN_ANOMALY   = 227.7991

EPHEMERIS_TYPE = 0
CLASSIFICATION_TYPE = U
NORAD_CAT_ID   = 66365
ELEMENT_SET_NO = 999
REV_AT_EPOCH   = 401
BSTAR          = .91368E-4
MEAN_MOTION_DOT = .12768E-3
MEAN_MOTION_DDOT = 0

CCSDS_OMM_VERS = 2.0
CREATION_DATE  = 
ORIGINATOR     = 

OBJECT_NAME    = STARLINK-35845
OBJECT_ID      = 2025-254U
CENTER_NAME    = EARTH
REF_FRAME      = TEME
TIME_SYSTEM    = UTC
MEAN_ELEMENT_THEORY = SGP/SGP4

EPOCH          = 2025-11-24T20:00:04.000032
MEAN_MOTION    = 15.74159277
ECCENTRICITY   = .0001206
INCLINATION    = 53.1586
RA_OF_ASC_NODE = 3.7694
ARG_OF_PERICENTER = 99.6687
MEAN_ANOMALY   = 208.4923

EPHEMERIS_TYPE = 0
CLASSIFICATION_TYPE = U
NORAD_CAT_ID   = 66366
ELEMENT_SET_NO = 999
REV_AT_EPOCH   = 404
BSTAR          = .41422E-3
MEAN_MOTION_DOT = .60392E-3
MEAN_MOTION_DDOT = 0

CCSDS_OMM_VERS = 2.0
CREATION_DATE  = 
ORIGINATOR     = 

OBJECT_NAME    = STARLINK-35846
OBJECT_ID      = 2025-254V
CENTER_NAME    = EARTH
REF_FRAME      = TEME
TIME_SYSTEM    = UTC
MEAN_ELEMENT_THEORY = SGP/SGP4

EPOCH          = 2025-11-24T20:00:04.000032
MEAN_MOTION    = 15.74179660
ECCENTRICITY   = .0001075
INCLINATION    = 53.1587
RA_OF_ASC_NODE = 3.7611
ARG_OF_PERICENTER = 90.6476
MEAN_ANOMALY   = 221.3415

EPHEMERIS_TYPE = 0
CLASSIFICATION_TYPE = U
NORAD_CAT_ID   = 66367
ELEMENT_SET_NO = 999
REV_AT_EPOCH   = 399
BSTAR          = .13634E-3
MEAN_MOTION_DOT = .19375E-3
MEAN_MOTION_DDOT = 0

CCSDS_OMM_VERS = 2.0
CREATION_DATE  = 
ORIGINATOR     = 

OBJECT_NAME    = STARLINK-34861
OBJECT_ID      = 2025-254W
CENTER_NAME    = EARTH
REF_FRAME      = TEME
TIME_SYSTEM    = UTC
MEAN_ELEMENT_THEORY = SGP/SGP4

EPOCH          = 2025-11-24T17:08:28.351392
MEAN_MOTION    = 15.74239157
ECCENTRICITY   = .0001324
INCLINATION    = 53.1582
RA_OF_ASC_NODE = 4.3439
ARG_OF_PERICENTER = 64.4878
MEAN_ANOMALY   = 295.6279

EPHEMERIS_TYPE = 0
CLASSIFICATION_TYPE = U
NORAD_CAT_ID   = 66368
ELEMENT_SET_NO = 999
REV_AT_EPOCH   = 284
BSTAR          = .14521E-2
MEAN_MOTION_DOT = .218094E-2
MEAN_MOTION_DDOT = 0

CCSDS_OMM_VERS = 2.0
CREATION_DATE  = 
ORIGINATOR     = 

OBJECT_NAME    = STARLINK-35795
OBJECT_ID      = 2025-254X
CENTER_NAME    = EARTH
REF_FRAME      = TEME
TIME_SYSTEM    = UTC
MEAN_ELEMENT_THEORY = SGP/SGP4

EPOCH          = 2025-11-24T20:00:04.000032
MEAN_MOTION    = 15.74180117
ECCENTRICITY   = .0001164
INCLINATION    = 53.1587
RA_OF_ASC_NODE = 3.7566
ARG_OF_PERICENTER = 91.5443
MEAN_ANOMALY   = 222.3570

EPHEMERIS_TYPE = 0
CLASSIFICATION_TYPE = U
NORAD_CAT_ID   = 66369
ELEMENT_SET_NO = 999
REV_AT_EPOCH   = 399
BSTAR          = .17175E-3
MEAN_MOTION_DOT = .24588E-3
MEAN_MOTION_DDOT = 0

CCSDS_OMM_VERS = 2.0
CREATION_DATE  = 
ORIGINATOR     = 

OBJECT_NAME    = STARLINK-35824
OBJECT_ID      = 2025-254Y
CENTER_NAME    = EARTH
REF_FRAME      = TEME
TIME_SYSTEM    = UTC
MEAN_ELEMENT_THEORY = SGP/SGP4

EPOCH          = 2025-11-24T20:00:04.000032
MEAN_MOTION    = 15.74134711
ECCENTRICITY   = .0001299
INCLINATION    = 53.1586
RA_OF_ASC_NODE = 3.7486
ARG_OF_PERICENTER = 107.6849
MEAN_ANOMALY   = 210.0759

EPHEMERIS_TYPE = 0
CLASSIFICATION_TYPE = U
NORAD_CAT_ID   = 66370
ELEMENT_SET_NO = 999
REV_AT_EPOCH   = 401
BSTAR          = .64841E-3
MEAN_MOTION_DOT = .95186E-3
MEAN_MOTION_DDOT = 0

CCSDS_OMM_VERS = 2.0
CREATION_DATE  = 
ORIGINATOR     = 

OBJECT_NAME    = STARLINK-35804
OBJECT_ID      = 2025-254Z
CENTER_NAME    = EARTH
REF_FRAME      = TEME
TIME_SYSTEM    = UTC
MEAN_ELEMENT_THEORY = SGP/SGP4

EPOCH          = 2025-11-24T17:07:00.416064
MEAN_MOTION    = 15.74252865
ECCENTRICITY   = .0001097
INCLINATION    = 53.1584
RA_OF_ASC_NODE = 4.3374
ARG_OF_PERICENTER = 94.0225
MEAN_ANOMALY   = 266.0921

EPHEMERIS_TYPE = 0
CLASSIFICATION_TYPE = U
NORAD_CAT_ID   = 66371
ELEMENT_SET_NO = 999
REV_AT_EPOCH   = 284
BSTAR          = .14923E-2
MEAN_MOTION_DOT = .224464E-2
MEAN_MOTION_DDOT = 0

CCSDS_OMM_VERS = 2.0
CREATION_DATE  = 
ORIGINATOR     = 

OBJECT_NAME    = STARLINK-35821
OBJECT_ID      = 2025-254AA
CENTER_NAME    = EARTH
REF_FRAME      = TEME
TIME_SYSTEM    = UTC
MEAN_ELEMENT_THEORY = SGP/SGP4

EPOCH          = 2025-11-24T17:07:29.849088
MEAN_MOTION    = 15.74251455
ECCENTRICITY   = .0001277
INCLINATION    = 53.1585
RA_OF_ASC_NODE = 4.3404
ARG_OF_PERICENTER = 61.9450
MEAN_ANOMALY   = 298.1699

EPHEMERIS_TYPE = 0
CLASSIFICATION_TYPE = U
NORAD_CAT_ID   = 66372
ELEMENT_SET_NO = 999
REV_AT_EPOCH   = 284
BSTAR          = .15866E-2
MEAN_MOTION_DOT = .239088E-2
MEAN_MOTION_DDOT = 0

CCSDS_OMM_VERS = 2.0
CREATION_DATE  = 
ORIGINATOR     = 

OBJECT_NAME    = STARLINK-35809
OBJECT_ID      = 2025-254AB
CENTER_NAME    = EARTH
REF_FRAME      = TEME
TIME_SYSTEM    = UTC
MEAN_ELEMENT_THEORY = SGP/SGP4

EPOCH          = 2025-11-24T17:06:31.298400
MEAN_MOTION    = 15.74259340
ECCENTRICITY   = .0000944
INCLINATION    = 53.1583
RA_OF_ASC_NODE = 4.3347
ARG_OF_PERICENTER = 70.4363
MEAN_ANOMALY   = 289.6759

EPHEMERIS_TYPE = 0
CLASSIFICATION_TYPE = U
NORAD_CAT_ID   = 66373
ELEMENT_SET_NO = 999
REV_AT_EPOCH   = 284
BSTAR          = .16174E-2
MEAN_MOTION_DOT = .243977E-2
MEAN_MOTION_DDOT = 0

CCSDS_OMM_VERS = 2.0
CREATION_DATE  = 
ORIGINATOR     = 

OBJECT_NAME    = STARLINK-35831
OBJECT_ID      = 2025-254AC
CENTER_NAME    = EARTH
REF_FRAME      = TEME
TIME_SYSTEM    = UTC
MEAN_ELEMENT_THEORY = SGP/SGP4

EPOCH          = 2025-11-24T15:34:36.628320
MEAN_MOTION    = 15.74253097
ECCENTRICITY   = .0001158
INCLINATION    = 53.1582
RA_OF_ASC_NODE = 4.6474
ARG_OF_PERICENTER = 81.4141
MEAN_ANOMALY   = 278.7010

EPHEMERIS_TYPE = 0
CLASSIFICATION_TYPE = U
NORAD_CAT_ID   = 66374
ELEMENT_SET_NO = 999
REV_AT_EPOCH   = 283
BSTAR          = .14514E-2
MEAN_MOTION_DOT = .218126E-2
MEAN_MOTION_DDOT = 0

CCSDS_OMM_VERS = 2.0
CREATION_DATE  = 
ORIGINATOR     = 

OBJECT_NAME    = STARLINK-35826
OBJECT_ID      = 2025-254AD
CENTER_NAME    = EARTH
REF_FRAME      = TEME
TIME_SYSTEM    = UTC
MEAN_ELEMENT_THEORY = SGP/SGP4

EPOCH          = 2025-11-24T17:05:32.796096
MEAN_MOTION    = 15.74265038
ECCENTRICITY   = .0000774
INCLINATION    = 53.1583
RA_OF_ASC_NODE = 4.3304
ARG_OF_PERICENTER = 115.1717
MEAN_ANOMALY   = 244.9383

EPHEMERIS_TYPE = 0
CLASSIFICATION_TYPE = U
NORAD_CAT_ID   = 66375
ELEMENT_SET_NO = 999
REV_AT_EPOCH   = 284
BSTAR          = .17336E-2
MEAN_MOTION_DOT = .262184E-2
MEAN_MOTION_DDOT = 0

